[{"OBJECT_NAME":"HELIOS 1B","OBJECT_ID":"1999-064A","EPOCH":"2026-04-04T06:30:45.592128","MEAN_MOTION":14.87806043,"ECCENTRICITY":0.00014987,"INCLINATION":98.1669,"RA_OF_ASC_NODE":357.264,"ARG_OF_PERICENTER":44.1939,"MEAN_ANOMALY":315.9396,"EPHEMERIS_TYPE":0,"CLASSIFICATION_TYPE":"U","NORAD_CAT_ID":25977,"ELEMENT_SET_NO":999,"REV_AT_EPOCH":68906,"BSTAR":0.00039373731,"MEAN_MOTION_DOT":3.539e-5,"MEAN_MOTION_DDOT":0},{"OBJECT_NAME":"TERRA","OBJECT_ID":"1999-068A","EPOCH":"2026-04-04T06:16:07.915872","MEAN_MOTION":14.61044406,"ECCENTRICITY":0.00036715,"INCLINATION":97.9539,"RA_OF_ASC_NODE":146.7122,"ARG_OF_PERICENTER":99.1126,"MEAN_ANOMALY":325.8657,"EPHEMERIS_TYPE":0,"CLASSIFICATION_TYPE":"U","NORAD_CAT_ID":25994,"ELEMENT_SET_NO":999,"REV_AT_EPOCH":39881,"BSTAR":0.00016740889,"MEAN_MOTION_DOT":7.77e-6,"MEAN_MOTION_DDOT":0},{"OBJECT_NAME":"SL-16 R/B","OBJECT_ID":"2000-006B","EPOCH":"2026-04-04T05:38:23.334720","MEAN_MOTION":14.15831083,"ECCENTRICITY":0.00152383,"INCLINATION":71.0039,"RA_OF_ASC_NODE":44.1205,"ARG_OF_PERICENTER":149.7346,"MEAN_ANOMALY":210.4661,"EPHEMERIS_TYPE":0,"CLASSIFICATION_TYPE":"U","NORAD_CAT_ID":26070,"ELEMENT_SET_NO":999,"REV_AT_EPOCH":35217,"BSTAR":8.2879419e-5,"MEAN_MOTION_DOT":1.15e-6,"MEAN_MOTION_DDOT":0},{"OBJECT_NAME":"TITAN 4B R/B","OBJECT_ID":"2000-047B","EPOCH":"2026-04-04T04:53:30.488640","MEAN_MOTION":15.09807059,"ECCENTRICITY":0.00403481,"INCLINATION":67.9903,"RA_OF_ASC_NODE":328.7553,"ARG_OF_PERICENTER":5.542,"MEAN_ANOMALY":354.6167,"EPHEMERIS_TYPE":0,"CLASSIFICATION_TYPE":"U","NORAD_CAT_ID":26474,"ELEMENT_SET_NO":999,"REV_AT_EPOCH":39676,"BSTAR":0.00036271032,"MEAN_MOTION_DOT":5.857e-5,"MEAN_MOTION_DDOT":0},{"OBJECT_NAME":"ENVISAT","OBJECT_ID":"2002-009A","EPOCH":"2026-04-04T06:57:02.108736","MEAN_MOTION":14.39046564,"ECCENTRICITY":0.00011799,"INCLINATION":98.3771,"RA_OF_ASC_NODE":47.2842,"ARG_OF_PERICENTER":82.2846,"MEAN_ANOMALY":85.8357,"EPHEMERIS_TYPE":0,"CLASSIFICATION_TYPE":"U","NORAD_CAT_ID":27386,"ELEMENT_SET_NO":999,"REV_AT_EPOCH":26285,"BSTAR":8.0455368e-5,"MEAN_MOTION_DOT":2.06e-6,"MEAN_MOTION_DDOT":0},{"OBJECT_NAME":"IDEFIX & ARIANE 42P R/B","OBJECT_ID":"2002-021B","EPOCH":"2026-04-04T05:25:47.909280","MEAN_MOTION":14.31044908,"ECCENTRICITY":0.00128625,"INCLINATION":98.5899,"RA_OF_ASC_NODE":32.5319,"ARG_OF_PERICENTER":110.0594,"MEAN_ANOMALY":250.1975,"EPHEMERIS_TYPE":0,"CLASSIFICATION_TYPE":"U","NORAD_CAT_ID":27422,"ELEMENT_SET_NO":999,"REV_AT_EPOCH":24767,"BSTAR":0.00019075168,"MEAN_MOTION_DOT":4.59e-6,"MEAN_MOTION_DDOT":0},{"OBJECT_NAME":"AQUA","OBJECT_ID":"2002-022A","EPOCH":"2026-04-04T05:04:49.158048","MEAN_MOTION":14.62040526,"ECCENTRICITY":0.00013956,"INCLINATION":98.4218,"RA_OF_ASC_NODE":62.05,"ARG_OF_PERICENTER":115.5772,"MEAN_ANOMALY":301.1356,"EPHEMERIS_TYPE":0,"CLASSIFICATION_TYPE":"U","NORAD_CAT_ID":27424,"ELEMENT_SET_NO":999,"REV_AT_EPOCH":27246,"BSTAR":0.00034606173,"MEAN_MOTION_DOT":1.687e-5,"MEAN_MOTION_DDOT":0},{"OBJECT_NAME":"CZ-4B R/B","OBJECT_ID":"2002-024C","EPOCH":"2026-04-04T04:25:12.498816","MEAN_MOTION":14.14552522,"ECCENTRICITY":0.00492608,"INCLINATION":98.8782,"RA_OF_ASC_NODE":147.456,"ARG_OF_PERICENTER":311.397,"MEAN_ANOMALY":115.8052,"EPHEMERIS_TYPE":0,"CLASSIFICATION_TYPE":"U","NORAD_CAT_ID":27432,"ELEMENT_SET_NO":999,"REV_AT_EPOCH":23284,"BSTAR":6.349394e-5,"MEAN_MOTION_DOT":7.8e-7,"MEAN_MOTION_DDOT":0},{"OBJECT_NAME":"MIDORI II (ADEOS-II)","OBJECT_ID":"2002-056A","EPOCH":"2026-04-04T06:50:46.434624","MEAN_MOTION":14.29306166,"ECCENTRICITY":4.02e-5,"INCLINATION":98.7815,"RA_OF_ASC_NODE":52.9471,"ARG_OF_PERICENTER":21.181,"MEAN_ANOMALY":338.9388,"EPHEMERIS_TYPE":0,"CLASSIFICATION_TYPE":"U","NORAD_CAT_ID":27597,"ELEMENT_SET_NO":999,"REV_AT_EPOCH":21395,"BSTAR":0.00021489819,"MEAN_MOTION_DOT":5.02e-6,"MEAN_MOTION_DDOT":0},{"OBJECT_NAME":"H-2A R/B","OBJECT_ID":"2002-056E","EPOCH":"2026-04-03T23:11:11.402016","MEAN_MOTION":14.33779897,"ECCENTRICITY":0.00714223,"INCLINATION":98.3248,"RA_OF_ASC_NODE":53.3763,"ARG_OF_PERICENTER":86.3216,"MEAN_ANOMALY":314.459,"EPHEMERIS_TYPE":0,"CLASSIFICATION_TYPE":"U","NORAD_CAT_ID":27601,"ELEMENT_SET_NO":999,"REV_AT_EPOCH":21773,"BSTAR":0.00020625719,"MEAN_MOTION_DOT":5.49e-6,"MEAN_MOTION_DDOT":0},{"OBJECT_NAME":"CZ-4B R/B","OBJECT_ID":"2003-049C","EPOCH":"2026-04-04T05:45:42.175872","MEAN_MOTION":14.55044855,"ECCENTRICITY":0.00486722,"INCLINATION":98.6898,"RA_OF_ASC_NODE":90.1516,"ARG_OF_PERICENTER":152.5223,"MEAN_ANOMALY":207.8562,"EPHEMERIS_TYPE":0,"CLASSIFICATION_TYPE":"U","NORAD_CAT_ID":28059,"ELEMENT_SET_NO":999,"REV_AT_EPOCH":19031,"BSTAR":0.00014506149,"MEAN_MOTION_DOT":5.84e-6,"MEAN_MOTION_DDOT":0},{"OBJECT_NAME":"CZ-2C R/B","OBJECT_ID":"2004-012C","EPOCH":"2026-04-04T04:01:26.494464","MEAN_MOTION":15.67822656,"ECCENTRICITY":0.00136697,"INCLINATION":97.7167,"RA_OF_ASC_NODE":161.9274,"ARG_OF_PERICENTER":209.9173,"MEAN_ANOMALY":150.1308,"EPHEMERIS_TYPE":0,"CLASSIFICATION_TYPE":"U","NORAD_CAT_ID":28222,"ELEMENT_SET_NO":999,"REV_AT_EPOCH":20826,"BSTAR":0.00083231345,"MEAN_MOTION_DOT":0.00092548,"MEAN_MOTION_DDOT":0},{"OBJECT_NAME":"SL-16 R/B","OBJECT_ID":"2004-021B","EPOCH":"2026-04-04T06:24:40.482144","MEAN_MOTION":14.14599793,"ECCENTRICITY":0.00053996,"INCLINATION":71.0013,"RA_OF_ASC_NODE":178.8182,"ARG_OF_PERICENTER":337.7154,"MEAN_ANOMALY":22.3733,"EPHEMERIS_TYPE":0,"CLASSIFICATION_TYPE":"U","NORAD_CAT_ID":28353,"ELEMENT_SET_NO":999,"REV_AT_EPOCH":12645,"BSTAR":0.00022884853,"MEAN_MOTION_DOT":3.92e-6,"MEAN_MOTION_DDOT":0},{"OBJECT_NAME":"CZ-4B R/B","OBJECT_ID":"2004-035C","EPOCH":"2026-04-04T02:24:49.773312","MEAN_MOTION":15.29539324,"ECCENTRICITY":0.00302817,"INCLINATION":97.3449,"RA_OF_ASC_NODE":128.0403,"ARG_OF_PERICENTER":236.4102,"MEAN_ANOMALY":123.4247,"EPHEMERIS_TYPE":0,"CLASSIFICATION_TYPE":"U","NORAD_CAT_ID":28415,"ELEMENT_SET_NO":999,"REV_AT_EPOCH":18379,"BSTAR":0.00052377129,"MEAN_MOTION_DOT":0.00015142,"MEAN_MOTION_DDOT":0},{"OBJECT_NAME":"CZ-2C R/B","OBJECT_ID":"2004-046B","EPOCH":"2026-04-04T05:15:14.028768","MEAN_MOTION":14.27002608,"ECCENTRICITY":0.01406347,"INCLINATION":98.1976,"RA_OF_ASC_NODE":7.6121,"ARG_OF_PERICENTER":79.4714,"MEAN_ANOMALY":282.2277,"EPHEMERIS_TYPE":0,"CLASSIFICATION_TYPE":"U","NORAD_CAT_ID":28480,"ELEMENT_SET_NO":999,"REV_AT_EPOCH":11214,"BSTAR":0.00011818666,"MEAN_MOTION_DOT":2.79e-6,"MEAN_MOTION_DDOT":0},{"OBJECT_NAME":"ARIANE 5 R/B","OBJECT_ID":"2004-049H","EPOCH":"2026-04-04T00:43:26.294016","MEAN_MOTION":14.85317938,"ECCENTRICITY":0.00828152,"INCLINATION":98.2664,"RA_OF_ASC_NODE":263.4426,"ARG_OF_PERICENTER":268.9464,"MEAN_ANOMALY":90.2261,"EPHEMERIS_TYPE":0,"CLASSIFICATION_TYPE":"U","NORAD_CAT_ID":28499,"ELEMENT_SET_NO":999,"REV_AT_EPOCH":14955,"BSTAR":0.00017272836,"MEAN_MOTION_DOT":1.512e-5,"MEAN_MOTION_DDOT":0},{"OBJECT_NAME":"CZ-2D R/B","OBJECT_ID":"2005-024B","EPOCH":"2026-04-04T00:36:32.328288","MEAN_MOTION":15.62633125,"ECCENTRICITY":0.00018326,"INCLINATION":97.3569,"RA_OF_ASC_NODE":110.1424,"ARG_OF_PERICENTER":282.0068,"MEAN_ANOMALY":78.0984,"EPHEMERIS_TYPE":0,"CLASSIFICATION_TYPE":"U","NORAD_CAT_ID":28738,"ELEMENT_SET_NO":999,"REV_AT_EPOCH":14373,"BSTAR":0.00083606444,"MEAN_MOTION_DOT":0.0007516,"MEAN_MOTION_DDOT":0}]
